{"type":"FeatureCollection","features":[{"type":"Feature","id":1,"geometry":{"type":"Point","coordinates":[119.48459166700002,34.700161111000057]},"properties":{"OBJECTID":1,"Image":"劈理","Latitude":34.700161111111115,"Longitude":119.48459166666667}},{"type":"Feature","id":2,"geometry":{"type":"Point","coordinates":[119.453813889,34.767388889000074]},"properties":{"OBJECTID":2,"Image":"海滩","Latitude":34.767388888888888,"Longitude":119.45381388888889}},{"type":"Feature","id":3,"geometry":{"type":"Point","coordinates":[119.48295000000007,34.697211111000058]},"properties":{"OBJECTID":3,"Image":"海蚀崖","Latitude":34.697211111111109,"Longitude":119.48295}},{"type":"Feature","id":4,"geometry":{"type":"Point","coordinates":[119.48493611100002,34.700141667000082]},"properties":{"OBJECTID":4,"Image":"海蚀平台","Latitude":34.700141666666667,"Longitude":119.48493611111111}},{"type":"Feature","id":5,"geometry":{"type":"Point","coordinates":[119.48293611100007,34.701791667000066]},"properties":{"OBJECTID":5,"Image":"海蚀洞穴","Latitude":34.701791666666672,"Longitude":119.48293611111112}},{"type":"Feature","id":6,"geometry":{"type":"Point","coordinates":[119.48383611100007,34.700244444000077]},"properties":{"OBJECTID":6,"Image":"海蚀穴","Latitude":34.700244444444451,"Longitude":119.48383611111112}},{"type":"Feature","id":7,"geometry":{"type":"Point","coordinates":[119.48228333300005,34.701625000000035]},"properties":{"OBJECTID":7,"Image":"石英片麻岩","Latitude":34.701625,"Longitude":119.48228333333334}},{"type":"Feature","id":8,"geometry":{"type":"Point","coordinates":[119.48493611100002,34.70013055600009]},"properties":{"OBJECTID":8,"Image":"积岩","Latitude":34.70013055555556,"Longitude":119.48493611111111}},{"type":"Feature","id":9,"geometry":{"type":"Point","coordinates":[119.21567500000003,34.594497222000086]},"properties":{"OBJECTID":9,"Image":"连云港市规划展示中心大厅","Latitude":34.594497222222223,"Longitude":119.215675}},{"type":"Feature","id":10,"geometry":{"type":"Point","coordinates":[119.48453611100001,34.700158333000047]},"properties":{"OBJECTID":10,"Image":"钾长石","Latitude":34.700158333333334,"Longitude":119.48453611111111}}]}