{
    "type": "FeatureCollection",
    "features": [
        {
            "type": "Feature",
            "id": 1,
            "geometry": {
                "type": "Point",
                "coordinates": [
                    117.10791670000003,
                    34.233011110000064
                ]
            },
            "properties": {
                "OBJECTID": 1,
                "Image": "尖山核部北翼",
                "Latitude": 34.23301111,
                "Longitude": 117.1079167,
                "Detail": "尖山背斜核部为猴家山组地层，两翼为馒头组等，其北翼附近地层出露紫色页岩和灰岩，风化程度较高，形成背斜谷，层理明显。由尖山背斜核部附近出露地层可以看到明显的断层面，且仅见一种层序。出露岩石上还分布有张节理穿过断层面。"
            }
        },
        {
            "type": "Feature",
            "id": 2,
            "geometry": {
                "type": "Point",
                "coordinates": [
                    117.10805830000004,
                    34.233569440000053
                ]
            },
            "properties": {
                "OBJECTID": 2,
                "Image": "擦痕&陡坎",
                "Latitude": 34.233569439999997,
                "Longitude": 117.1080583,
                "Detail": "尖山背斜核部附近裸露的断层面上可以看见断层两盘岩石被磨碎的岩屑和岩粉在断层面上刻划的一组比较均匀的平行细纹，即擦痕。擦痕是研究断裂两盘岩体相对位移的主要依据之一，通过擦痕的平滑度和方向性，可以判断断层两侧岩石的移动方向和相对位移量。同时该处地面在高程上突降，形成坡度在70度以上的陡峻地段，是由地壳运动引起的断层活动形成的陡坎。"
            }
        },
        {
            "type": "Feature",
            "id": 3,
            "geometry": {
                "type": "Point",
                "coordinates": [
                    117.1081167000001,
                    34.233411110000077
                ]
            },
            "properties": {
                "OBJECTID": 3,
                "Image": "方解石",
                "Latitude": 34.233411109999999,
                "Longitude": 117.1081167,
                "Detail": "方解石呈半透明白色，玻璃光泽，为晶体的集合体。石灰岩形成面粗糙不平、延伸不远的张节理后，沉积结晶形成方解石。"
            }
        },
        {
            "type": "Feature",
            "id": 4,
            "geometry": {
                "type": "Point",
                "coordinates": [
                    117.10790280000003,
                    34.232897220000041
                ]
            },
            "properties": {
                "OBJECTID": 4,
                "Image": "测量褶曲产状",
                "Latitude": 34.232897219999998,
                "Longitude": 117.10790280000001,
                "Detail": "用罗盘测量核部两侧馒头组下部灰岩的岩层产状并分析，可知尖山背斜为倾斜褶曲且轴面产状为向东南方向倾斜。"
            }
        },
        {
            "type": "Feature",
            "id": 5,
            "geometry": {
                "type": "Point",
                "coordinates": [
                    117.10542220000002,
                    34.235113890000036
                ]
            },
            "properties": {
                "OBJECTID": 5,
                "Image": "混合砂岩",
                "Latitude": 34.235113890000001,
                "Longitude": 117.10542220000001,
                "Detail": "紫色页岩之上是混合砂岩。混合砂岩呈紫灰色，主要由砂粒和紫色页岩组成。成因是沉积过程中水动力扰动破碎紫色页岩，同时带来砂粒和其他矿物，混合沉积经过压实、固结成岩形成混合砂岩。"
            }
        },
        {
            "type": "Feature",
            "id": 6,
            "geometry": {
                "type": "Point",
                "coordinates": [
                    117.10827500000005,
                    34.233480560000089
                ]
            },
            "properties": {
                "OBJECTID": 6,
                "Image": "石灰岩",
                "Latitude": 34.233480559999997,
                "Longitude": 117.10827500000001,
                "Detail": "石灰岩在猴家山组出露较好，呈灰黄色，具水平层理。该岩石在海里形成，经过连续沉积，呈现灰黄色原因是由泥质掺杂，结晶过程好。"
            }
        },
        {
            "type": "Feature",
            "id": 7,
            "geometry": {
                "type": "Point",
                "coordinates": [
                    117.10740560000011,
                    34.233419440000034
                ]
            },
            "properties": {
                "OBJECTID": 7,
                "Image": "紫色页岩",
                "Latitude": 34.233419439999999,
                "Longitude": 117.10740560000001,
                "Detail": "紫色页岩呈薄片状，泥质结构，质软，倾向与之前石灰岩一致，坡度更陡形成沟。主要矿物成分是黏土矿物，由粘土经过压固、脱水、重结晶等作用后形成，由于氧化铁和游离碳等物质的存在而呈现紫色。"
            }
        },
        {
            "type": "Feature",
            "id": 9,
            "geometry": {
                "type": "Point",
                "coordinates": [
                    117.10810000000004,
                    34.233519440000066
                ]
            },
            "properties": {
                "OBJECTID": 9,
                "Image": "豹皮状石灰岩",
                "Latitude": 34.233519440000002,
                "Longitude": 117.10809999999999,
                "Detail": "豹皮状石灰岩在浅灰-深灰色基底上分布有黄灰色的不规则状斑块，形似豹皮。灰黄色斑块主要由白云石组成，白云石间可残留少量方解石；深灰色为石灰岩部分，由方解石组成。灰黄色斑块的排列具一定方向性，即沿层面方向断续分布，在较大的断面上表现十分明显。"
            }
        },
        {
            "type": "Feature",
            "id": 10,
            "geometry": {
                "type": "Point",
                "coordinates": [
                    117.1048333,
                    34.235525000000052
                ]
            },
            "properties": {
                "OBJECTID": 10,
                "Image": "鲕粒灰岩",
                "Latitude": 34.235525000000003,
                "Longitude": 117.1048333,
                "Detail": "鲕粒灰岩是一种以鲕粒为主要组分的石灰岩，鲕粒是由水中的悬浮颗粒经过长时间的沉积和滚圆作用形成的微小圆球状或椭球状的碳酸钙颗粒。在碳酸钙处于过饱和状态的水域中悬浮的碳酸钙颗粒经过长时间的沉积和滚圆作用，最终形成鲕粒并固结成岩，代表强水动力条件的滩沉积。"
            }
        },
        {
            "type": "Feature",
            "id": 11,
            "geometry": {
                "type": "Point",
                "coordinates": [
                    117.10811390000003,
                    34.233411110000077
                ]
            },
            "properties": {
                "OBJECTID": 11,
                "Image": "黑色&黄色石灰岩",
                "Latitude": 34.233411109999999,
                "Longitude": 117.10811390000001,
                "Detail": "黑色石灰岩主要呈黑色，带有灰白色的斑纹，成分主要是方解石，有机质含量比较高，可能混入黏土、粉砂等杂质。黄色石灰岩主要由方解石组成，其颜色可能因其中含有的铁离子氧化或其他矿物杂质而呈现出独特的黄色调，由流水沿断层面流动溶蚀形成。"
            }
        }
    ]
}