{
    "type": "FeatureCollection",
    "features": [
        {
            "type": "Feature",
            "id": 1,
            "geometry": {
                "type": "Point",
                "coordinates": [
                    119.48459166700002,
                    34.700161111000057
                ]
            },
            "properties": {
                "OBJECTID": 1,
                "Image": "劈理",
                "Latitude": 34.700161111111115,
                "Longitude": 119.48459166666667,
                "Detail": "当岩浆岩在地壳深处受到高温、高压以及区域应力的作用时，可能发生变质作用。这一过程中，如果岩石受到定向压力，会形成一系列平行或近似平行的薄片或薄板的构造面，这些构造面称为劈理。"
            }
        },
        {
            "type": "Feature",
            "id": 2,
            "geometry": {
                "type": "Point",
                "coordinates": [
                    119.453813889,
                    34.767388889000074
                ]
            },
            "properties": {
                "OBJECTID": 2,
                "Image": "海滩",
                "Latitude": 34.767388888888888,
                "Longitude": 119.45381388888889,
                "Detail": "连岛海滩的成因是波浪作用、潮汐作用、地质构造与海岸侵蚀、河流搬运以及气候与风向等多种自然因素综合作用的结果"
            }
        },
        {
            "type": "Feature",
            "id": 3,
            "geometry": {
                "type": "Point",
                "coordinates": [
                    119.48295000000007,
                    34.697211111000058
                ]
            },
            "properties": {
                "OBJECTID": 3,
                "Image": "海蚀崖",
                "Latitude": 34.697211111111109,
                "Longitude": 119.48295,
                "Detail": "在近岸水下斜坡有较大倾斜和风浪盛行的地带，击岸浪携带岩石碎屑或砂砾石不断拍击、冲刷、掏蚀陡崖，导致崖脚形成浪蚀龛。随着击岸浪的不断冲刷和掏蚀，凹穴逐渐扩大，最终使上部岩石失去支撑而崩塌，形成陡峭的崖壁，即海蚀崖。"
            }
        },
        {
            "type": "Feature",
            "id": 4,
            "geometry": {
                "type": "Point",
                "coordinates": [
                    119.48493611100002,
                    34.700141667000082
                ]
            },
            "properties": {
                "OBJECTID": 4,
                "Image": "海蚀平台",
                "Latitude": 34.700141666666667,
                "Longitude": 119.48493611111111,
                "Detail": "海蚀平台指基岩海岸在海浪侵蚀作用下，形成的一个向海微倾斜的平坦岩面。"
            }
        },
        {
            "type": "Feature",
            "id": 5,
            "geometry": {
                "type": "Point",
                "coordinates": [
                    119.48293611100007,
                    34.701791667000066
                ]
            },
            "properties": {
                "OBJECTID": 5,
                "Image": "海蚀洞穴",
                "Latitude": 34.701791666666672,
                "Longitude": 119.48293611111112,
                "Detail": "海蚀洞穴下方成分较软、岩石比较破碎、张节理比较发育，由于海浪对岩石的不断冲击和侵蚀，使得岩石逐渐破碎并形成空洞"
            }
        },
        {
            "type": "Feature",
            "id": 6,
            "geometry": {
                "type": "Point",
                "coordinates": [
                    119.48383611100007,
                    34.700244444000077
                ]
            },
            "properties": {
                "OBJECTID": 6,
                "Image": "海蚀穴",
                "Latitude": 34.700244444444451,
                "Longitude": 119.48383611111112,
                "Detail": "在海浪的长期冲击和侵蚀作用下，沿着岩石的节理、层理等抗蚀力相对薄弱的部位逐渐形成海蚀穴。与海蚀洞不同，海蚀穴尚未形成深入的洞穴结构，但其存在预示着海蚀地貌的进一步发展。"
            }
        },
        {
            "type": "Feature",
            "id": 7,
            "geometry": {
                "type": "Point",
                "coordinates": [
                    119.48228333300005,
                    34.701625000000035
                ]
            },
            "properties": {
                "OBJECTID": 7,
                "Image": "石英片麻岩",
                "Latitude": 34.701625,
                "Longitude": 119.48228333333334,
                "Detail":"石英片麻岩呈灰黑色、片麻状构造，主要矿物成分为石英、长石（如斜长石、钾长石）以及云母（如白云母、黑云母）等。岩浆岩或沉积岩经强烈地壳运动挤压，矿物重结晶，变质形成石英片麻岩。"
            }
        },
        {
            "type": "Feature",
            "id": 8,
            "geometry": {
                "type": "Point",
                "coordinates": [
                    119.48493611100002,
                    34.70013055600009
                ]
            },
            "properties": {
                "OBJECTID": 8,
                "Image": "积岩",
                "Latitude": 34.70013055555556,
                "Longitude": 119.48493611111111,
                "Detail":"积岩指没被风化过的岩石，这类岩石具有坚硬的质地、完整的结构和清晰的岩质，其矿物成分、颗粒大小、结构构造等均未发生明显变化。"
            }
        },
        {
            "type": "Feature",
            "id": 10,
            "geometry": {
                "type": "Point",
                "coordinates": [
                    119.48453611100001,
                    34.700158333000047
                ]
            },
            "properties": {
                "OBJECTID": 10,
                "Image": "钾长石",
                "Latitude": 34.700158333333334,
                "Longitude": 119.48453611111111,
                "Detail":"钾长石呈肉红色、玻璃光泽，主要成分为SiO2。在变质过程中，原岩中的不稳定矿物（如方解石、白云石等）会发生分解，释放出SiO2、Al2O3等组分，这些组分在适当的温度和压力条件下与K2O结合，形成钾长石等稳定矿物。"
            }
        }
    ]
}