{
    "type": "FeatureCollection",
    "features": [
        {
            "type": "Feature",
            "id": 1,
            "geometry": {
                "type": "Point",
                "coordinates": [
                    118.06682777800006,
                    34.174236111000084
                ]
            },
            "properties": {
                "OBJECTID": 1,
                "Image": "京杭大运河徐州段",
                "Latitude": 34.174236111111107,
                "Longitude": 118.06682777777777,
                "Detail": "事实上，京杭大运河并非完全由人工挖造，而是巧妙地利用了自然河流与湖泊，形成了人工河道与自然水系相结合的复杂网络。例如，京杭大运河在徐州段利用骆马湖作为运河的重要组成部分，对运河起到水源补给和航运作用。京杭大运河的河道既受水源条件影响，如在华北平原处来回摆动、河道不固定等，也与地形特征息息相关，如在徐州段经过郯庐断裂带形成的河谷等。"
            }
        },
        {
            "type": "Feature",
            "id": 2,
            "geometry": {
                "type": "Point",
                "coordinates": [
                    118.34290555600001,
                    34.199313889000052
                ]
            },
            "properties": {
                "OBJECTID": 2,
                "Image": "剪节理",
                "Latitude": 34.199313888888888,
                "Longitude": 118.34290555555555,
                "Detail": "剪节理能切穿砾石、延伸长、节理面光滑、产状稳定，而张节理常绕过砾石、延伸不远、节理面粗糙、产状不稳定。"
            }
        },
        {
            "type": "Feature",
            "id": 3,
            "geometry": {
                "type": "Point",
                "coordinates": [
                    118.342836111,
                    34.196616667000058
                ]
            },
            "properties": {
                "OBJECTID": 3,
                "Image": "左旋",
                "Latitude": 34.196616666666664,
                "Longitude": 118.34283611111111,
                "Detail": "当走滑断层的一侧相对于另一侧沿逆时针方向运动时，这种运动方式被称为左旋。"
            }
        },
        {
            "type": "Feature",
            "id": 4,
            "geometry": {
                "type": "Point",
                "coordinates": [
                    118.34251111100002,
                    34.202713889000051
                ]
            },
            "properties": {
                "OBJECTID": 4,
                "Image": "根劈",
                "Latitude": 34.202713888888894,
                "Longitude": 118.34251111111111,
                "Detail": "根劈指植物根系在岩石裂隙中生长时，随着根系的不断长大，对裂隙壁产生挤压，从而使岩石裂隙扩大，最终引起岩石破坏。"
            }
        },
        {
            "type": "Feature",
            "id": 5,
            "geometry": {
                "type": "Point",
                "coordinates": [
                    118.33801388900008,
                    34.197766667000053
                ]
            },
            "properties": {
                "OBJECTID": 5,
                "Image": "河流",
                "Latitude": 34.197766666666666,
                "Longitude": 118.33801388888888,
                "Detail": "河流凹岸水速加快，受到侵蚀；凸岸水速较小，沉积物在此不断堆积，逐渐形成河床（粗颗粒）、河漫滩（细颗粒）等堆积体。堆积在凸岸的沉积物经过压实、胶结等成岩作用，逐渐固结成岩，形成砾岩。"
            }
        },
        {
            "type": "Feature",
            "id": 6,
            "geometry": {
                "type": "Point",
                "coordinates": [
                    118.34217777800006,
                    34.199333333000084
                ]
            },
            "properties": {
                "OBJECTID": 6,
                "Image": "瀑布",
                "Latitude": 34.199333333333328,
                "Longitude": 118.34217777777778,
                "Detail": "断层、褶皱、岩体节理等地质构造部位易受河水侵蚀，断裂使岩石破碎、崩塌，流水带走岩石冲击底部形成凹坑，上层垮塌、断点后移，形成瀑布。瀑布下方的岩石相对较软，易于被侵蚀，而上方的岩石则相对较硬，侵蚀速度较慢、形成堆积。"
            }
        },
        {
            "type": "Feature",
            "id": 7,
            "geometry": {
                "type": "Point",
                "coordinates": [
                    118.34226944400007,
                    34.202875000000063
                ]
            },
            "properties": {
                "OBJECTID": 7,
                "Image": "球状风化",
                "Latitude": 34.202875000000006,
                "Longitude": 118.34226944444444,
                "Detail": "球状风化主要是由于物理风化和化学风化联合作用的结果，但以化学风化作用为主。白天太阳辐射强烈，地表温度迅速升高，而夜晚则迅速降温。这种较大的昼夜温差会加剧岩石的热胀冷缩效应，促进岩石内部裂隙的发育。裂隙的增多为化学风化作用的进行提供更多通道，加速风化过程的进行。岩石棱角逐渐缩减，一层层剥落，形成细屑，最终趋向球形或椭球形。"
            }
        }
    ]
}