{
    "type": "FeatureCollection",
    "features": [
        {
            "type": "Feature",
            "id": 7,
            "geometry": {
                "type": "Point",
                "coordinates": [
                    118.34226944400007,
                    34.202875000000063
                ]
            },
            "properties": {
                "OBJECTID": 7,
                "Image": "球状风化",
                "Latitude": 34.202875000000006,
                "Longitude": 118.34226944444444,
                "Detail": "球状风化主要是由于物理风化和化学风化联合作用的结果，但以化学风化作用为主。白天太阳辐射强烈，地表温度迅速升高，而夜晚则迅速降温。这种较大的昼夜温差会加剧岩石的热胀冷缩效应，促进岩石内部裂隙的发育。裂隙的增多为化学风化作用的进行提供更多通道，加速风化过程的进行。岩石棱角逐渐缩减，一层层剥落，形成细屑，最终趋向球形或椭球形。"
            }
        },
        {
            "type": "Feature",
            "id": 8,
            "geometry": {
                "type": "Point",
                "coordinates": [
                    118.06736111100008,
                    34.174233333000075
                ]
            },
            "properties": {
                "OBJECTID": 8,
                "Image": "窑湾古镇",
                "Latitude": 34.174233333333333,
                "Longitude": 118.06736111111111,
                "Detail": "古徐州由于地处京杭大运河的中间段以及黄河和运河的交汇处，既是民船的交粮地，又是官兵接运处，舟车鳞集，贸易兴旺，因此成为京杭大运河上的航运枢纽、商业枢纽和军事枢纽。在京杭大运河京杭大运河与骆马湖交汇处，大运河自北向东拐弯，形成窑湾古镇所处的河湾。窑湾古镇扼南北水路之要道，是京杭大运河的主要码头之一。现窑湾古镇中存有八百余间古民居群，成为集文化旅游、特色购物、民俗美食、休闲度假于一体的互动式体验型大运河文化古镇。"
            }
        },
        {
            "type": "Feature",
            "id": 10,
            "geometry": {
                "type": "Point",
                "coordinates": [
                    118.06682222200004,
                    34.174236111000084
                ]
            },
            "properties": {
                "OBJECTID": 10,
                "Image": "骆马湖湖中岛",
                "Latitude": 34.174236111111107,
                "Longitude": 118.06682222222221,
                "Detail": "骆马湖是郯庐断裂带（新沂—宿迁段）凹陷形成的构造型湖泊。在骆马湖的形成过程中，由于某些区域河流搬运作用弱、沉积物的堆积速度较快，形成了相对高起的部分，这些部分在湖泊水位波动时露出水面，成为岛屿。然而现在的骆马湖岛屿形状较为规整，是在自然岛屿基础上经人工改造而成。"
            }
        }
    ]
}