{
    "type": "FeatureCollection",
    "features": [
        {
            "type": "Feature",
            "id": 1,
            "geometry": {
                "type": "Point",
                "coordinates": [
                    118.06682777800006,
                    34.174236111000084
                ]
            },
            "properties": {
                "OBJECTID": 1,
                "Image": "京杭大运河徐州段",
                "Latitude": 34.174236111111107,
                "Longitude": 118.06682777777777
            }
        },
        {
            "type": "Feature",
            "id": 2,
            "geometry": {
                "type": "Point",
                "coordinates": [
                    118.34290555600001,
                    34.199313889000052
                ]
            },
            "properties": {
                "OBJECTID": 2,
                "Image": "剪节理",
                "Latitude": 34.199313888888888,
                "Longitude": 118.34290555555555
            }
        },
        {
            "type": "Feature",
            "id": 3,
            "geometry": {
                "type": "Point",
                "coordinates": [
                    118.342836111,
                    34.196616667000058
                ]
            },
            "properties": {
                "OBJECTID": 3,
                "Image": "左旋",
                "Latitude": 34.196616666666664,
                "Longitude": 118.34283611111111
            }
        },
        {
            "type": "Feature",
            "id": 4,
            "geometry": {
                "type": "Point",
                "coordinates": [
                    118.34251111100002,
                    34.202713889000051
                ]
            },
            "properties": {
                "OBJECTID": 4,
                "Image": "根劈",
                "Latitude": 34.202713888888894,
                "Longitude": 118.34251111111111
            }
        },
        {
            "type": "Feature",
            "id": 5,
            "geometry": {
                "type": "Point",
                "coordinates": [
                    118.33801388900008,
                    34.197766667000053
                ]
            },
            "properties": {
                "OBJECTID": 5,
                "Image": "河流",
                "Latitude": 34.197766666666666,
                "Longitude": 118.33801388888888
            }
        },
        {
            "type": "Feature",
            "id": 6,
            "geometry": {
                "type": "Point",
                "coordinates": [
                    118.34217777800006,
                    34.199333333000084
                ]
            },
            "properties": {
                "OBJECTID": 6,
                "Image": "瀑布",
                "Latitude": 34.199333333333328,
                "Longitude": 118.34217777777778
            }
        },
        {
            "type": "Feature",
            "id": 7,
            "geometry": {
                "type": "Point",
                "coordinates": [
                    118.34226944400007,
                    34.202875000000063
                ]
            },
            "properties": {
                "OBJECTID": 7,
                "Image": "球状风化",
                "Latitude": 34.202875000000006,
                "Longitude": 118.34226944444444
            }
        },
        {
            "type": "Feature",
            "id": 8,
            "geometry": {
                "type": "Point",
                "coordinates": [
                    118.06736111100008,
                    34.174233333000075
                ]
            },
            "properties": {
                "OBJECTID": 8,
                "Image": "窑湾古镇",
                "Latitude": 34.174233333333333,
                "Longitude": 118.06736111111111
            }
        },
        {
            "type": "Feature",
            "id": 9,
            "geometry": {
                "type": "Point",
                "coordinates": [
                    118.32663611100008,
                    34.184800000000052
                ]
            },
            "properties": {
                "OBJECTID": 9,
                "Image": "药王泉",
                "Latitude": 34.184799999999996,
                "Longitude": 118.32663611111111
            }
        },
        {
            "type": "Feature",
            "id": 10,
            "geometry": {
                "type": "Point",
                "coordinates": [
                    118.06682222200004,
                    34.174236111000084
                ]
            },
            "properties": {
                "OBJECTID": 10,
                "Image": "骆马湖湖中岛",
                "Latitude": 34.174236111111107,
                "Longitude": 118.06682222222221
            }
        }
    ]
}