{
    "type": "FeatureCollection",
    "features": [
        {
            "type": "Feature",
            "id": 1,
            "geometry": {
                "type": "Point",
                "coordinates": [
                    119.29017500000009,
                    34.646777778000057
                ]
            },
            "properties": {
                "OBJECTID": 1,
                "Image": "七十二洞",
                "Latitude": 34.646777777777778,
                "Longitude": 119.290175,
                "Detail": "七十二洞并非指七十二个洞穴，而是泛指数量众多的洞穴。这些洞穴是千万年前一次猛烈造山运动留下的痕迹，许多巨大石块交叉垒叠，由崩塌自然形成这些洞穴，未来将可能继续发生崩塌，形成更多的洞穴。"
            }
        },
        {
            "type": "Feature",
            "id": 2,
            "geometry": {
                "type": "Point",
                "coordinates": [
                    119.28376388900006,
                    34.638930556000048
                ]
            },
            "properties": {
                "OBJECTID": 2,
                "Image": "基岩",
                "Latitude": 34.638930555555554,
                "Longitude": 119.28376388888888,
                "Detail": "基岩指经过风化作用后，原来在高温高压下形成的矿物被破坏，形成的一些在常温常压下较稳定的新矿物所构成的岩石。"
            }
        },
        {
            "type": "Feature",
            "id": 3,
            "geometry": {
                "type": "Point",
                "coordinates": [
                    119.28096111100001,
                    34.638883333000081
                ]
            },
            "properties": {
                "OBJECTID": 3,
                "Image": "断层谷",
                "Latitude": 34.638883333333332,
                "Longitude": 119.28096111111111,
                "Detail": "图中两座山的中间是沿断层或断裂带发育的河谷，称为断层谷。由于断层所在部位常常是岩层的破碎带，岩石破碎、抗冲蚀性与抗蚀性显著降低，因此在水流作用下容易发育成河谷。这种破碎的岩石带为滑坡的发生提供了物质基础，断层谷地区由于特殊的地质构造和环境条件易发生滑坡灾害。"
            }
        },
        {
            "type": "Feature",
            "id": 4,
            "geometry": {
                "type": "Point",
                "coordinates": [
                    119.29126388900011,
                    34.645880556000066
                ]
            },
            "properties": {
                "OBJECTID": 4,
                "Image": "海侵石",
                "Latitude": 34.645880555555557,
                "Longitude": 119.29126388888889,
                "Detail": "在地质历史时期，由于地壳的升降和海平面的变化，海水侵入陆地，对岩石进行侵蚀和沉积作用，形成了独特的海侵地貌和海侵石。海侵石具有独特的形态和纹理，是研究地质历史和古环境变化的重要证据。"
            }
        },
        {
            "type": "Feature",
            "id": 5,
            "geometry": {
                "type": "Point",
                "coordinates": [
                    119.28400000000011,
                    34.640416667000068
                ]
            },
            "properties": {
                "OBJECTID": 5,
                "Image": "滑坡隐患点",
                "Latitude": 34.640416666666667,
                "Longitude": 119.28399999999999,
                "Detail":"在土地松软、坡度陡峭、断层和节理等不稳定的地质构造处，存在发生滑坡的危险。"
            }
        },
        {
            "type": "Feature",
            "id": 6,
            "geometry": {
                "type": "Point",
                "coordinates": [
                    119.27101666700003,
                    34.641494444000045
                ]
            },
            "properties": {
                "OBJECTID": 6,
                "Image": "片岩&板岩",
                "Latitude": 34.641494444444447,
                "Longitude": 119.27101666666667
            }
        },
        {
            "type": "Feature",
            "id": 7,
            "geometry": {
                "type": "Point",
                "coordinates": [
                    119.28358333300002,
                    34.63812222200005
                ]
            },
            "properties": {
                "OBJECTID": 7,
                "Image": "背斜&沟谷",
                "Latitude": 34.638122222222222,
                "Longitude": 119.28358333333333
            }
        }
    ]
}